[{"OBJECT_NAME":"STARLINK-34925","OBJECT_ID":"2025-179Q","EPOCH":"2026-03-09T16:58:10.617312","MEAN_MOTION":15.05651298,"ECCENTRICITY":0.00010161,"INCLINATION":97.6023,"RA_OF_ASC_NODE":113.0242,"ARG_OF_PERICENTER":122.52,"MEAN_ANOMALY":237.6125,"EPHEMERIS_TYPE":0,"CLASSIFICATION_TYPE":"U","NORAD_CAT_ID":65249,"ELEMENT_SET_NO":999,"REV_AT_EPOCH":3182,"BSTAR":0.00022494632,"MEAN_MOTION_DOT":3.187e-5,"MEAN_MOTION_DDOT":0},{"OBJECT_NAME":"SL-8 DEB","OBJECT_ID":"1976-098E","EPOCH":"2026-03-09T08:07:12.416160","MEAN_MOTION":15.06605169,"ECCENTRICITY":0.00102283,"INCLINATION":74.028,"RA_OF_ASC_NODE":26.283,"ARG_OF_PERICENTER":218.296,"MEAN_ANOMALY":294.2383,"EPHEMERIS_TYPE":0,"CLASSIFICATION_TYPE":"U","NORAD_CAT_ID":18504,"ELEMENT_SET_NO":999,"REV_AT_EPOCH":18055,"BSTAR":0.0011587434,"MEAN_MOTION_DOT":0.00017191,"MEAN_MOTION_DDOT":0}]
